GLOBALSTAR M045 [-]     
1 25676U 99019A   23227.98736944 -.00000032  00000+0  54083-3 0  9998
2 25676  51.9978  58.2505 0000800  25.8557 140.6786 12.27015954111238
GLOBALSTAR M019 [-]     
1 25677U 99019B   23229.05895131  .00000019  00000+0  11373-2 0  9991
2 25677  51.9868 138.4312 0001641  38.6739 334.4725 12.13842353103954
GLOBALSTAR M044 [-]     
1 25678U 99019C   23228.68027267 -.00000145  00000+0 -84982-3 0  9996
2 25678  51.9994   6.9630 0006409 179.4962 193.8200 11.90225265 91464
GLOBALSTAR M042 [-]     
1 25679U 99019D   23229.02355997 -.00000105  00000+0 -11835-3 0  9993
2 25679  52.0006 142.7787 0003522   7.4244   5.3187 12.22046202103394
GLOBALSTAR M025 [-]     
1 25770U 99031A   23226.48845941 -.00000026  00000+0  12697-2 0  9996
2 25770  51.9798 277.6160 0001245 105.4544   2.0336 11.22543892 63826
GLOBALSTAR M049 [-]     
1 25771U 99031B   23227.02871215  .00000048  00000+0  39352-2 0  9991
2 25771  51.9851 277.3467 0002387 317.5484  42.5128 11.12096375 42644
GLOBALSTAR M047 [-]     
1 25772U 99031C   23227.38942415 -.00000051  00000+0  51292-3 0  9995
2 25772  51.9867 337.6769 0016519 187.3212 172.7355 11.31914400 69805
GLOBALSTAR M052 [-]     
1 25773U 99031D   23226.43220655 -.00000088  00000+0 -75569-3 0  9990
2 25773  51.9885  36.8242 0003015 123.2321 254.6596 11.15045397 61291
